{
  "type": "FeatureCollection",
  "features": [
    {
      "type": "Feature",
      "properties": {
        "norad_id": 36036,
        "name": "SMOS",
        "group": "resource",
        "lat": 69.95301301087417,
        "lon": 154.1566703606809,
        "alt_km": 751.7706663718127,
        "timestamp": "2025-12-19T04:59:47.957368+00:00",
        "meta_object_name": "SMOS",
        "meta_object_id": "2009-059A",
        "meta_epoch": "2025-12-18T21:59:34.682496",
        "meta_mean_motion": 14.3974658,
        "meta_eccentricity": 0.00010893,
        "meta_inclination": 98.438,
        "meta_ra_of_asc_node": 177.8733,
        "meta_arg_of_pericenter": 81.5521,
        "meta_mean_anomaly": 278.5791,
        "meta_ephemeris_type": 0,
        "meta_classification_type": "U",
        "meta_norad_cat_id": 36036,
        "meta_element_set_no": 999,
        "meta_rev_at_epoch": 84751,
        "meta_bstar": 0.00011196002,
        "meta_mean_motion_dot": 3.07e-06,
        "meta_mean_motion_ddot": 0,
        "tle_line1": "1 36036U 09059A   25352.91637364  .00000307  00000+0  11196-3 0  9997",
        "tle_line2": "2 36036  98.4380 177.8733 0001089  81.5521 278.5791 14.39746580847519"
      },
      "geometry": {
        "type": "Point",
        "coordinates": [
          154.1566703606809,
          69.95301301087417
        ]
      }
    },
    {
      "type": "Feature",
      "properties": {
        "norad_id": 36110,
        "name": "YAOGAN-7",
        "group": "resource",
        "lat": 59.09288747234489,
        "lon": -138.69696288545543,
        "alt_km": 646.2116506392249,
        "timestamp": "2025-12-19T04:59:47.957379+00:00",
        "meta_object_name": "YAOGAN-7",
        "meta_object_id": "2009-069A",
        "meta_epoch": "2025-12-18T15:43:27.785280",
        "meta_mean_motion": 14.77740892,
        "meta_eccentricity": 0.00233434,
        "meta_inclination": 98.0296,
        "meta_ra_of_asc_node": 234.3909,
        "meta_arg_of_pericenter": 261.1034,
        "meta_mean_anomaly": 98.7534,
        "meta_ephemeris_type": 0,
        "meta_classification_type": "U",
        "meta_norad_cat_id": 36110,
        "meta_element_set_no": 999,
        "meta_rev_at_epoch": 86296,
        "meta_bstar": 7.4291584e-05,
        "meta_mean_motion_dot": 4.81e-06,
        "meta_mean_motion_ddot": 0,
        "tle_line1": "1 36110U 09069A   25352.65518270  .00000481  00000+0  74292-4 0  9996",
        "tle_line2": "2 36110  98.0296 234.3909 0023343 261.1034  98.7534 14.77740892862965"
      },
      "geometry": {
        "type": "Point",
        "coordinates": [
          -138.69696288545543,
          59.09288747234489
        ]
      }
    },
    {
      "type": "Feature",
      "properties": {
        "norad_id": 36605,
        "name": "TANDEM-X",
        "group": "resource",
        "lat": -8.418475365033622,
        "lon": 177.38515505405266,
        "alt_km": 512.9643203068654,
        "timestamp": "2025-12-19T04:59:47.957389+00:00",
        "meta_object_name": "TANDEM-X",
        "meta_object_id": "2010-030A",
        "meta_epoch": "2025-12-18T13:56:33.642816",
        "meta_mean_motion": 15.1915139,
        "meta_eccentricity": 0.00018106,
        "meta_inclination": 97.4444,
        "meta_ra_of_asc_node": 357.8759,
        "meta_arg_of_pericenter": 79.4695,
        "meta_mean_anomaly": 280.6743,
        "meta_ephemeris_type": 0,
        "meta_classification_type": "U",
        "meta_norad_cat_id": 36605,
        "meta_element_set_no": 999,
        "meta_rev_at_epoch": 85922,
        "meta_bstar": 3.9209338e-05,
        "meta_mean_motion_dot": 7.56e-06,
        "meta_mean_motion_ddot": 0,
        "tle_line1": "1 36605U 10030A   25352.58094494  .00000756  00000+0  39209-4 0  9998",
        "tle_line2": "2 36605  97.4444 357.8759 0001810  79.4695 280.6743 15.19151390859229"
      },
      "geometry": {
        "type": "Point",
        "coordinates": [
          177.38515505405266,
          -8.418475365033622
        ]
      }
    },
    {
      "type": "Feature",
      "properties": {
        "norad_id": 36795,
        "name": "CARTOSAT-2B",
        "group": "resource",
        "lat": 10.050364879088233,
        "lon": 40.63929563502536,
        "alt_km": 628.7783999115063,
        "timestamp": "2025-12-19T04:59:47.957399+00:00",
        "meta_object_name": "CARTOSAT-2B",
        "meta_object_id": "2010-035A",
        "meta_epoch": "2025-12-18T22:27:17.928288",
        "meta_mean_motion": 14.78733207,
        "meta_eccentricity": 0.00128821,
        "meta_inclination": 97.7851,
        "meta_ra_of_asc_node": 41.765,
        "meta_arg_of_pericenter": 58.1389,
        "meta_mean_anomaly": 302.1074,
        "meta_ephemeris_type": 0,
        "meta_classification_type": "U",
        "meta_norad_cat_id": 36795,
        "meta_element_set_no": 999,
        "meta_rev_at_epoch": 83321,
        "meta_bstar": 7.6729716e-05,
        "meta_mean_motion_dot": 5.14e-06,
        "meta_mean_motion_ddot": 0,
        "tle_line1": "1 36795U 10035A   25352.93562417  .00000514  00000+0  76730-4 0  9999",
        "tle_line2": "2 36795  97.7851  41.7650 0012882  58.1389 302.1074 14.78733207833213"
      },
      "geometry": {
        "type": "Point",
        "coordinates": [
          40.63929563502536,
          10.050364879088233
        ]
      }
    },
    {
      "type": "Feature",
      "properties": {
        "norad_id": 36834,
        "name": "YAOGAN-10",
        "group": "resource",
        "lat": -47.10257789884973,
        "lon": -175.62890580150543,
        "alt_km": 622.3993662104749,
        "timestamp": "2025-12-19T04:59:47.957410+00:00",
        "meta_object_name": "YAOGAN-10",
        "meta_object_id": "2010-038A",
        "meta_epoch": "2025-12-18T23:30:39.235392",
        "meta_mean_motion": 14.84632457,
        "meta_eccentricity": 0.00014302,
        "meta_inclination": 97.9138,
        "meta_ra_of_asc_node": 12.754,
        "meta_arg_of_pericenter": 81.2797,
        "meta_mean_anomaly": 5.4196,
        "meta_ephemeris_type": 0,
        "meta_classification_type": "U",
        "meta_norad_cat_id": 36834,
        "meta_element_set_no": 999,
        "meta_rev_at_epoch": 83046,
        "meta_bstar": 0.00024690644,
        "meta_mean_motion_dot": 2.033e-05,
        "meta_mean_motion_ddot": 0,
        "tle_line1": "1 36834U 10038A   25352.97962078  .00002033  00000+0  24691-3 0  9993",
        "tle_line2": "2 36834  97.9138  12.7540 0001430  81.2797   5.4196 14.84632457830464"
      },
      "geometry": {
        "type": "Point",
        "coordinates": [
          -175.62890580150543,
          -47.10257789884973
        ]
      }
    },
    {
      "type": "Feature",
      "properties": {
        "norad_id": 37216,
        "name": "COSMO-SKYMED 4",
        "group": "resource",
        "lat": 81.43581352623606,
        "lon": 61.30944483510106,
        "alt_km": 614.1518665899857,
        "timestamp": "2025-12-19T04:59:47.957420+00:00",
        "meta_object_name": "COSMO-SKYMED 4",
        "meta_object_id": "2010-060A",
        "meta_epoch": "2025-12-18T23:42:59.006016",
        "meta_mean_motion": 14.8215136,
        "meta_eccentricity": 0.00013806,
        "meta_inclination": 97.8799,
        "meta_ra_of_asc_node": 174.2167,
        "meta_arg_of_pericenter": 81.9632,
        "meta_mean_anomaly": 278.1738,
        "meta_ephemeris_type": 0,
        "meta_classification_type": "U",
        "meta_norad_cat_id": 37216,
        "meta_element_set_no": 999,
        "meta_rev_at_epoch": 81787,
        "meta_bstar": 5.1089899e-05,
        "meta_mean_motion_dot": 3.55e-06,
        "meta_mean_motion_ddot": 0,
        "tle_line1": "1 37216U 10060A   25352.98818294  .00000355  00000+0  51090-4 0  9993",
        "tle_line2": "2 37216  97.8799 174.2167 0001380  81.9632 278.1738 14.82151360817877"
      },
      "geometry": {
        "type": "Point",
        "coordinates": [
          61.30944483510106,
          81.43581352623606
        ]
      }
    },
    {
      "type": "Feature",
      "properties": {
        "norad_id": 37387,
        "name": "RESOURCESAT-2",
        "group": "resource",
        "lat": 81.17811307857261,
        "lon": -37.982773020515836,
        "alt_km": 810.6472713653748,
        "timestamp": "2025-12-19T04:59:47.957430+00:00",
        "meta_object_name": "RESOURCESAT-2",
        "meta_object_id": "2011-015A",
        "meta_epoch": "2025-12-18T21:48:54.766944",
        "meta_mean_motion": 14.21599634,
        "meta_eccentricity": 0.00061458,
        "meta_inclination": 98.787,
        "meta_ra_of_asc_node": 56.4329,
        "meta_arg_of_pericenter": 26.1129,
        "meta_mean_anomaly": 334.0357,
        "meta_ephemeris_type": 0,
        "meta_classification_type": "U",
        "meta_norad_cat_id": 37387,
        "meta_element_set_no": 999,
        "meta_rev_at_epoch": 76056,
        "meta_bstar": 7.1971438e-05,
        "meta_mean_motion_dot": 1.13e-06,
        "meta_mean_motion_ddot": 0,
        "tle_line1": "1 37387U 11015A   25352.90896721  .00000113  00000+0  71971-4 0  9998",
        "tle_line2": "2 37387  98.7870  56.4329 0006145  26.1129 334.0357 14.21599634760568"
      },
      "geometry": {
        "type": "Point",
        "coordinates": [
          -37.982773020515836,
          81.17811307857261
        ]
      }
    }
  ]
}